SAUDISAT 1C (SO-50)     
1 27607U 02058C   26154.26409835  .00001126  00000+0  14986-3 0  9992
2 27607  64.5505 172.0623 0075519 265.0164  94.2317 14.83015002262393
SAUDISAT 2              
1 28371U 04025F   26154.56584791  .00000343  00000+0  87638-4 0  9990
2 28371  98.5505 154.1960 0024284 341.4783  18.5528 14.56675406163767
SAUDISAT 3              
1 31118U 07012B   26154.45421211  .00000343  00000+0  63658-4 0  9993
2 31118  98.1450 104.8464 0013249 271.5931  88.3758 14.71417052 25724
PISAT                   
1 41784U 16059B   26154.58890231  .00001021  00000+0  18139-3 0  9997
2 41784  97.8177 155.6263 0027568 247.9152 111.9127 14.68958213517744
FLYING LAPTOP           
1 42831U 17042G   26154.92025234  .00005830  00000+0  45877-3 0  9996
2 42831  97.4636 310.9691 0018759 165.1788 194.9990 15.01057120484469
SALSAT                  
1 46495U 20068K   26154.53943321  .00008826  00000+0  31028-3 0  9992
2 46495  97.8849 156.7757 0009424   1.6764 358.4505 15.29589697313273
