OBJECT_NAME,OBJECT_ID,EPOCH,MEAN_MOTION,ECCENTRICITY,INCLINATION,RA_OF_ASC_NODE,ARG_OF_PERICENTER,MEAN_ANOMALY,EPHEMERIS_TYPE,CLASSIFICATION_TYPE,NORAD_CAT_ID,ELEMENT_SET_NO,REV_AT_EPOCH,BSTAR,MEAN_MOTION_DOT,MEAN_MOTION_DDOT
SAUDISAT 1C (SO-50),2002-058C,2026-06-03T06:20:18.097440,14.83015002,.00755199,64.5505,172.0623,265.0164,94.2317,0,U,27607,999,26239,.14986347E-3,.1126E-4,0
SAUDISAT 2,2004-025F,2026-06-03T13:34:49.259424,14.56675406,.00242843,98.5505,154.1960,341.4783,18.5528,0,U,28371,999,16376,.87637592E-4,.343E-5,0
SAUDISAT 3,2007-012B,2026-06-03T10:54:03.926304,14.71417052,.00132493,98.1450,104.8464,271.5931,88.3758,0,U,31118,999,2572,.63657789E-4,.343E-5,0
PISAT,2016-059B,2026-06-03T14:08:01.159584,14.68958213,.00275684,97.8177,155.6263,247.9152,111.9127,0,U,41784,999,51774,.18138765E-3,.1021E-4,0
FLYING LAPTOP,2017-042G,2026-06-03T22:05:09.802176,15.01057120,.00187599,97.4636,310.9691,165.1788,194.9990,0,U,42831,999,48446,.45877449E-3,.583E-4,0
SALSAT,2020-068K,2026-06-03T12:56:47.029344,15.29589697,.00094244,97.8849,156.7757,1.6764,358.4505,0,U,46495,999,31327,.31027905E-3,.8826E-4,0
